COMMENT,ORIGINATOR,NORAD_CAT_ID,OBJECT_NAME,OBJECT_TYPE,CLASSIFICATION_TYPE,INTLDES,EPOCH,EPOCH_MICROSECONDS,MEAN_MOTION,ECCENTRICITY,INCLINATION,RA_OF_ASC_NODE,ARG_OF_PERICENTER,MEAN_ANOMALY,EPHEMERIS_TYPE,ELEMENT_SET_NO,REV_AT_EPOCH,BSTAR,MEAN_MOTION_DOT,MEAN_MOTION_DDOT,FILE,TLE_LINE0,TLE_LINE1,TLE_LINE2,OBJECT_ID,OBJECT_NUMBER,SEMIMAJOR_AXIS,PERIOD,APOGEE,PERIGEE,DECAYED
"GENERATED VIA SPACETRACK.ORG API","18 SPCS","55094","SPACEBEE-165","PAYLOAD","U","23001CP","2023-11-01 03:26:13","318944","15.26304841","0.0011376","97.4582","4.442","238.7827","121.2297","0","999","4594","0.0011923","0.00031019","0","4064888","0 SPACEBEE-165","1 55094U 23001CP  23305.14320971  .00031019  00000-0  11923-2 0  9991","2 55094  97.4582   4.4420 0011376 238.7827 121.2297 15.26304841 45949","2023-001CP","55094","6865.007","94.346","494.682","479.062","0"
"GENERATED VIA SPACETRACK.ORG API","18 SPCS","55094","SPACEBEE-165","PAYLOAD","U","23001CP","2023-11-01 17:35:52","105344","15.26337363","0.0011425","97.458","5.0308","236.4633","123.5515","0","999","4603","0.0010742","0.00027956","0","4065327","0 SPACEBEE-165","1 55094U 23001CP  23305.73324196  .00027956  00000-0  10742-2 0  9992","2 55094  97.4580   5.0308 0011425 236.4633 123.5515 15.26337363 46038","2023-001CP","55094","6864.910","94.343","494.618","478.931","0"
"GENERATED VIA SPACETRACK.ORG API","18 SPCS","55094","SPACEBEE-165","PAYLOAD","U","23001CP","2023-11-01 22:19:04","735488","15.26350824","0.0011416","97.458","5.2271","235.8401","124.1756","0","999","4606","0.0011617","0.0003026","0","4065398","0 SPACEBEE-165","1 55094U 23001CP  23305.92991592  .00030260  00000-0  11617-2 0  9997","2 55094  97.4580   5.2271 0011416 235.8401 124.1756 15.26350824 46069","2023-001CP","55094","6864.869","94.343","494.571","478.897","0"
"GENERATED VIA SPACETRACK.ORG API","18 SPCS","55094","SPACEBEE-165","PAYLOAD","U","23001CP","2023-11-02 03:02:17","227392","15.26366382","0.0011411","97.4579","5.4235","235.237","124.7795","0","999","4609","0.0012618","0.00032901","0","4066590","0 SPACEBEE-165","1 55094U 23001CP  23306.12658828  .00032901  00000-0  12618-2 0  9998","2 55094  97.4579   5.4235 0011411 235.2370 124.7795 15.26366382 46091","2023-001CP","55094","6864.823","94.342","494.521","478.854","0"
"GENERATED VIA SPACETRACK.ORG API","18 SPCS","55094","SPACEBEE-165","PAYLOAD","U","23001CP","2023-11-02 17:11:53","877120","15.2640431","0.0011436","97.4579","6.0122","232.9852","127.0341","0","999","4618","0.001211","0.00031605","0","4066933","0 SPACEBEE-165","1 55094U 23001CP  23306.71659580  .00031605  00000-0  12110-2 0  9996","2 55094  97.4579   6.0122 0011436 232.9852 127.0341 15.26404310 46186","2023-001CP","55094","6864.709","94.339","494.424","478.723","0"
"GENERATED VIA SPACETRACK.ORG API","18 SPCS","55094","SPACEBEE-165","PAYLOAD","U","23001CP","2023-11-02 17:11:53","877120","15.2640431","0.0011436","97.4579","6.0122","232.9852","127.0341","0","999","4618","0.001211","0.00031605","0","4067000","0 SPACEBEE-165","1 55094U 23001CP  23306.71659580  .00031605  00000-0  12110-2 0  9996","2 55094  97.4579   6.0122 0011436 232.9852 127.0341 15.26404310 46186","2023-001CP","55094","6864.709","94.339","494.424","478.723","0"
"GENERATED VIA SPACETRACK.ORG API","18 SPCS","55094","SPACEBEE-165","PAYLOAD","U","23001CP","2023-11-03 10:30:16","838496","15.26452049","0.0011403","97.4577","6.7317","230.2962","129.7271","0","999","4629","0.0011723","0.00030632","0","4068165","0 SPACEBEE-165","1 55094U 23001CP  23307.43769489  .00030632  00000-0  11723-2 0  9994","2 55094  97.4577   6.7317 0011403 230.2962 129.7271 15.26452049 46299","2023-001CP","55094","6864.566","94.336","494.258","478.603","0"
"GENERATED VIA SPACETRACK.ORG API","18 SPCS","55094","SPACEBEE-165","PAYLOAD","U","23001CP","2023-11-03 16:47:51","978624","15.26471473","0.0011408","97.4579","6.9934","229.2618","130.7631","0","999","4633","0.0012386","0.00032395","0","4068824","0 SPACEBEE-165","1 55094U 23001CP  23307.69990716  .00032395  00000-0  12386-2 0  9995","2 55094  97.4579   6.9934 0011408 229.2618 130.7631 15.26471473 46338","2023-001CP","55094","6864.507","94.335","494.203","478.541","0"
"GENERATED VIA SPACETRACK.ORG API","18 SPCS","55094","SPACEBEE-165","PAYLOAD","U","23001CP","2023-11-04 03:48:37","855872","15.26502726","0.001141","97.4577","7.4515","227.5166","132.5109","0","999","4640","0.0013066","0.00034218","0","4069520","0 SPACEBEE-165","1 55094U 23001CP  23308.15877148  .00034218  00000-0  13066-2 0  9992","2 55094  97.4577   7.4515 0011410 227.5166 132.5109 15.26502726 46403","2023-001CP","55094","6864.414","94.333","494.111","478.446","0"
"GENERATED VIA SPACETRACK.ORG API","18 SPCS","55094","SPACEBEE-165","PAYLOAD","U","23001CP","2023-11-04 03:48:37","855872","15.26502726","0.001141","97.4577","7.4515","227.5166","132.5109","0","999","4640","0.0013066","0.00034218","0","4070271","0 SPACEBEE-165","1 55094U 23001CP  23308.15877148  .00034218  00000-0  13066-2 0  9992","2 55094  97.4577   7.4515 0011410 227.5166 132.5109 15.26502726 46403","2023-001CP","55094","6864.414","94.333","494.111","478.446","0"
"GENERATED VIA SPACETRACK.ORG API","18 SPCS","55094","SPACEBEE-165","PAYLOAD","U","23001CP","2023-11-04 16:23:46","445280","15.26536954","0.0011441","97.4573","7.9744","225.8315","134.1984","0","999","4648","0.00122","0.00031969","0","4070865","0 SPACEBEE-165","1 55094U 23001CP  23308.68317645  .00031969  00000-0  12200-2 0  9990","2 55094  97.4573   7.9744 0011441 225.8315 134.1984 15.26536954 46486","2023-001CP","55094","6864.311","94.331","494.030","478.323","0"
"GENERATED VIA SPACETRACK.ORG API","18 SPCS","55094","SPACEBEE-165","PAYLOAD","U","23001CP","2023-11-05 03:24:30","457152","15.26579231","0.0011441","97.4576","8.4321","224.331","135.7013","0","999","4655","0.0016374","0.0004305","0","4071996","0 SPACEBEE-165","1 55094U 23001CP  23309.14201918  .00043050  00000-0  16374-2 0  9997","2 55094  97.4576   8.4321 0011441 224.3310 135.7013 15.26579231 46558","2023-001CP","55094","6864.184","94.329","493.903","478.196","0"
"GENERATED VIA SPACETRACK.ORG API","18 SPCS","55094","SPACEBEE-165","PAYLOAD","U","23001CP","2023-11-05 03:24:30","457152","15.26579231","0.0011441","97.4576","8.4321","224.331","135.7013","0","999","4655","0.0016374","0.0004305","0","4072138","0 SPACEBEE-165","1 55094U 23001CP  23309.14201918  .00043050  00000-0  16374-2 0  9997","2 55094  97.4576   8.4321 0011441 224.3310 135.7013 15.26579231 46558","2023-001CP","55094","6864.184","94.329","493.903","478.196","0"
"GENERATED VIA SPACETRACK.ORG API","18 SPCS","55094","SPACEBEE-165","PAYLOAD","U","23001CP","2023-11-05 15:59:36","458016","15.26628393","0.0011486","97.4576","8.9557","222.5611","137.4738","0","999","4663","0.0016043","0.00042237","0","4072675","0 SPACEBEE-165","1 55094U 23001CP  23309.66639419  .00042237  00000-0  16043-2 0  9994","2 55094  97.4576   8.9557 0011486 222.5611 137.4738 15.26628393 46633","2023-001CP","55094","6864.037","94.326","493.786","478.018","0"
"GENERATED VIA SPACETRACK.ORG API","18 SPCS","55094","SPACEBEE-165","PAYLOAD","U","23001CP","2023-11-06 03:00:17","393184","15.26718615","0.0011462","97.4576","9.4138","221.037","139.0007","0","999","4670","0.0031521","0.00083742","0","4073506","0 SPACEBEE-165","1 55094U 23001CP  23310.12520131  .00083742  00000-0  31521-2 0  9991","2 55094  97.4576   9.4138 0011462 221.0370 139.0007 15.26718615 46706","2023-001CP","55094","6863.767","94.320","493.499","477.764","0"
"GENERATED VIA SPACETRACK.ORG API","18 SPCS","55094","SPACEBEE-165","PAYLOAD","U","23001CP","2023-11-06 03:00:17","393184","15.26718615","0.0011462","97.4576","9.4138","221.037","139.0007","0","999","4670","0.0031521","0.00083742","0","4074285","0 SPACEBEE-165","1 55094U 23001CP  23310.12520131  .00083742  00000-0  31521-2 0  9991","2 55094  97.4576   9.4138 0011462 221.0370 139.0007 15.26718615 46706","2023-001CP","55094","6863.767","94.320","493.499","477.764","0"
"GENERATED VIA SPACETRACK.ORG API","18 SPCS","55094","SPACEBEE-165","PAYLOAD","U","23001CP","2023-11-06 17:09:42","26400","15.26784009","0.0011463","97.4579","10.003","218.6095","141.4325","0","999","4679","0.0023449","0.00062224","0","4074845","0 SPACEBEE-165","1 55094U 23001CP  23310.71506975  .00062224  00000-0  23449-2 0  9998","2 55094  97.4579  10.0030 0011463 218.6095 141.4325 15.26784009 46794","2023-001CP","55094","6863.571","94.316","493.303","477.568","0"
"GENERATED VIA SPACETRACK.ORG API","18 SPCS","55094","SPACEBEE-165","PAYLOAD","U","23001CP","2023-11-06 21:52:49","784448","15.26795131","0.0011563","97.4579","10.1993","217.3643","142.6792","0","999","4682","0.0016728","0.00044279","0","4074934","0 SPACEBEE-165","1 55094U 23001CP  23310.91168732  .00044279  00000-0  16728-2 0  9997","2 55094  97.4579  10.1993 0011563 217.3643 142.6792 15.26795131 46822","2023-001CP","55094","6863.537","94.315","493.339","477.466","0"
"GENERATED VIA SPACETRACK.ORG API","18 SPCS","55094","SPACEBEE-165","PAYLOAD","U","23001CP","2023-11-07 04:10:19","783776","15.26824163","0.0011555","97.4582","10.4616","216.5397","143.5055","0","999","4686","0.001795","0.00047581","0","4075698","0 SPACEBEE-165","1 55094U 23001CP  23311.17384009  .00047581  00000-0  17950-2 0  9990","2 55094  97.4582  10.4616 0011555 216.5397 143.5055 15.26824163 46863","2023-001CP","55094","6863.450","94.313","493.246","477.385","0"
"GENERATED VIA SPACETRACK.ORG API","18 SPCS","55094","SPACEBEE-165","PAYLOAD","U","23001CP","2023-11-07 04:10:19","783776","15.26824163","0.0011555","97.4582","10.4616","216.5397","143.5055","0","999","4686","0.001795","0.00047581","0","4076432","0 SPACEBEE-165","1 55094U 23001CP  23311.17384009  .00047581  00000-0  17950-2 0  9990","2 55094  97.4582  10.4616 0011555 216.5397 143.5055 15.26824163 46863","2023-001CP","55094","6863.450","94.313","493.246","477.385","0"
